{
  "norad_id": 56455,
  "name": "STARLINK-5987",
  "history": [
    {
      "epoch": "2026-03-28T10:16:15.940992Z",
      "apogee_km": 574.5550395992768,
      "perigee_km": 569.5691057885069,
      "latitude_deg": -3.380349152218594e-05,
      "longitude_deg": 117.2658123489607,
      "height_km": 574.5941647389798,
      "semi_major_axis_km": 6950.199072693891,
      "eccentricity": 0.00035869,
      "inclination_deg": 69.9984,
      "raan_deg": 97.1808,
      "arg_perigee_deg": 267.6049,
      "mean_anomaly_deg": 92.4699,
      "mean_motion_rev_day": 14.98328001
    },
    {
      "epoch": "2026-03-29T03:53:44.441088Z",
      "apogee_km": 574.5454975542316,
      "perigee_km": 569.5510944005428,
      "latitude_deg": -7.211235047508944e-05,
      "longitude_deg": -149.67856797876428,
      "height_km": 574.593929494741,
      "semi_major_axis_km": 6950.185295977387,
      "eccentricity": 0.0003593,
      "inclination_deg": 69.9984,
      "raan_deg": 95.329,
      "arg_perigee_deg": 267.2983,
      "mean_anomaly_deg": 92.7764,
      "mean_motion_rev_day": 14.98332456
    },
    {
      "epoch": "2026-03-30T02:19:36.924096Z",
      "apogee_km": 574.5108716284813,
      "perigee_km": 569.5581793994006,
      "latitude_deg": -4.131416856032978e-05,
      "longitude_deg": -129.4253540011246,
      "height_km": 574.6058015871147,
      "semi_major_axis_km": 6950.171525513941,
      "eccentricity": 0.0003563,
      "inclination_deg": 69.9986,
      "raan_deg": 92.9721,
      "arg_perigee_deg": 266.6812,
      "mean_anomaly_deg": 93.3939,
      "mean_motion_rev_day": 14.98336909
    },
    {
      "epoch": "2026-03-30T07:08:01.058208Z",
      "apogee_km": 574.543366064514,
      "perigee_km": 569.5236749077976,
      "latitude_deg": -6.668196876538163e-05,
      "longitude_deg": 157.7713739312767,
      "height_km": 574.58258328585,
      "semi_major_axis_km": 6950.1705204861555,
      "eccentricity": 0.00036112,
      "inclination_deg": 69.9985,
      "raan_deg": 92.4668,
      "arg_perigee_deg": 267.2342,
      "mean_anomaly_deg": 92.8403,
      "mean_motion_rev_day": 14.98337234
    },
    {
      "epoch": "2026-03-30T10:20:17.041920Z",
      "apogee_km": 574.5186282668647,
      "perigee_km": 569.5402240558051,
      "latitude_deg": -1.161335515779479e-05,
      "longitude_deg": 109.23649354983574,
      "height_km": 574.5795891072056,
      "semi_major_axis_km": 6950.166426161334,
      "eccentricity": 0.00035815,
      "inclination_deg": 69.9985,
      "raan_deg": 92.1301,
      "arg_perigee_deg": 267.1852,
      "mean_anomaly_deg": 92.8897,
      "mean_motion_rev_day": 14.98338558
    }
  ]
}